[{"OBJECT_NAME":"STARLINK-30343","OBJECT_ID":"2023-131X","EPOCH":"2026-03-09T07:59:37.708512","MEAN_MOTION":15.02534143,"ECCENTRICITY":0.00011307,"INCLINATION":43.0041,"RA_OF_ASC_NODE":173.46,"ARG_OF_PERICENTER":258.5463,"MEAN_ANOMALY":101.5252,"EPHEMERIS_TYPE":0,"CLASSIFICATION_TYPE":"U","NORAD_CAT_ID":57753,"ELEMENT_SET_NO":999,"REV_AT_EPOCH":13987,"BSTAR":9.458901e-6,"MEAN_MOTION_DOT":-7.6e-7,"MEAN_MOTION_DDOT":0},{"OBJECT_NAME":"UNISAT-5","OBJECT_ID":"2013-066F","EPOCH":"2026-03-09T22:02:55.134816","MEAN_MOTION":15.04155626,"ECCENTRICITY":0.00317175,"INCLINATION":97.6976,"RA_OF_ASC_NODE":39.5171,"ARG_OF_PERICENTER":68.1555,"MEAN_ANOMALY":292.3039,"EPHEMERIS_TYPE":0,"CLASSIFICATION_TYPE":"U","NORAD_CAT_ID":39421,"ELEMENT_SET_NO":999,"REV_AT_EPOCH":66774,"BSTAR":0.0004680489,"MEAN_MOTION_DOT":6.504e-5,"MEAN_MOTION_DDOT":0}]
